STRIX-4                 
1 60352U 24137A   26068.65404516  .00020530  00000+0  71820-3 0  9996
2 60352  43.0134 129.8162 0016840   5.2738 354.8289 15.29026223 88766
STARLINK-34375          
1 64477U 25133F   26068.45808478  .00021442  00000+0  73386-3 0  9990
2 64477  53.1600 117.8270 0001126  80.7451 279.3678 15.30206184 41159
